{"type":"FeatureCollection","features":[{"type":"Feature","properties":{"Organisation":"Akroyd (Boothtown) Library","Address":"Akroyd Park, Bankfield, Boothtown Road, Halifax, HX3 6HG ","Ward":"Boothtown","Postcode":"HX3 6HG","Longitude":"-1.864735","Latitude":"53.733606"},"geometry":{"type":"Point","coordinates":[-1.864735,53.733606]}},{"type":"Feature","properties":{"Organisation":"All Saints Church","Address":"Dudwell Lane, Halifax, HX3 0SD","Ward":"Skircoat Green","Postcode":"HX3 0SD","Longitude":"-1.861432","Latitude":"53.700625"},"geometry":{"type":"Point","coordinates":[-1.861432,53.700625]}},{"type":"Feature","properties":{"Organisation":"Arch Way Project","Address":"Arden Road, Halifax, HX1 3AG","Ward":"Savile Park","Postcode":"HX1 3AG","Longitude":"-1.871426","Latitude":"53.716806"},"geometry":{"type":"Point","coordinates":[-1.871426,53.716806]}},{"type":"Feature","properties":{"Organisation":"Bahai Community of Calderdale","Address":"Outback Community Garden, Lightowler Lane, Halifax, HX1 5NB ","Ward":"Park","Postcode":"HX1 5NB","Longitude":"-1.877055","Latitude":"53.724676"},"geometry":{"type":"Point","coordinates":[-1.877055,53.724676]}},{"type":"Feature","properties":{"Organisation":"Basement Recovery Project (The)","Address":"10 Carlton Street, Halifax, HX1 2AL","Ward":"Halifax","Postcode":"HX1 2AL","Longitude":"-1.863944","Latitude":"53.720483"},"geometry":{"type":"Point","coordinates":[-1.863944,53.720483]}},{"type":"Feature","properties":{"Organisation":"Beechwood Library","Address":"Beechwood Road, Illingworth, Halifax, HX2 9BU","Ward":"Illingworth","Postcode":"HX2 9BU","Longitude":"-1.884115","Latitude":"53.747585"},"geometry":{"type":"Point","coordinates":[-1.884115,53.747585]}},{"type":"Feature","properties":{"Organisation":"Boothtown Wellbeing Centre ","Address":"Simpson Street, Claremount, Halifax, HX3 6PA","Ward":"Boothtown","Postcode":"HX3 6PA","Longitude":"-1.866483","Latitude":"53.737123"},"geometry":{"type":"Point","coordinates":[-1.866483,53.737123]}},{"type":"Feature","properties":{"Organisation":"Brighouse Central Methodists Church","Address":"Commercial Street, Brighouse, HD6 1AP","Ward":"Brighouse","Postcode":"HD6 1AP","Longitude":"-1.781119","Latitude":"53.701764"},"geometry":{"type":"Point","coordinates":[-1.781119,53.701764]}},{"type":"Feature","properties":{"Organisation":"Brighouse Library","Address":"Halifax Road, Brighouse, HD6 2AF","Ward":"Brighouse","Postcode":"HD6 2AF","Longitude":"-1.786046","Latitude":"53.703993"},"geometry":{"type":"Point","coordinates":[-1.786046,53.703993]}},{"type":"Feature","properties":{"Organisation":"Brighouse Pool and Fitness Centre","Address":"Woodvale Road","Ward":"Brighouse","Postcode":"HD6 4AS","Longitude":"-1.781049","Latitude":"53.709548"},"geometry":{"type":"Point","coordinates":[-1.781049,53.709548]}},{"type":"Feature","properties":{"Organisation":"Calder Food Support Hebden Bridge","Address":"Hebden Bridge Medical Centre, Valley Road, Hebden Bridge, HX7 7BZ","Ward":"Hebden Bridge","Postcode":"HX7 7BZ","Longitude":"-2.011563","Latitude":"53.743686"},"geometry":{"type":"Point","coordinates":[-2.011563,53.743686]}},{"type":"Feature","properties":{"Organisation":"Calderdale Our Place, Boothtown","Address":"Boothtown Methodist Church, Freda Wade Centre, Beverly Place, Halifax, HX3 6LP","Ward":"Boothtown","Postcode":"HX3 6LP","Longitude":"-1.865552","Latitude":"53.734218"},"geometry":{"type":"Point","coordinates":[-1.865552,53.734218]}},{"type":"Feature","properties":{"Organisation":"Central Halifax Library","Address":"Square Road, Halifax, HX1 1QG","Ward":"Halifax","Postcode":"HX1 1QG","Longitude":"-1.855072","Latitude":"53.722396"},"geometry":{"type":"Point","coordinates":[-1.855072,53.722396]}},{"type":"Feature","properties":{"Organisation":"Children's Corner Pre-school","Address":"St Hilda's Church, Gibraltar Road, Halifax, HX1 4HE","Ward":"Park","Postcode":"HX1 4HE","Longitude":"-1.890311","Latitude":"53.720438"},"geometry":{"type":"Point","coordinates":[-1.890311,53.720438]}},{"type":"Feature","properties":{"Organisation":"Christ Church Hipperholme","Address":"Brighouse Road, Hipperholme, HX3 8AA","Ward":"Hipperholme","Postcode":"HX3 8AA","Longitude":"-1.810322","Latitude":"53.725524"},"geometry":{"type":"Point","coordinates":[-1.810322,53.725524]}},{"type":"Feature","properties":{"Organisation":"Clifton Methodist Church","Address":"Towngate, Clifton, Brighouse, HD6 4HX","Ward":"Brighouse","Postcode":"HD6 4HX","Longitude":"-1.762247","Latitude":"53.704227"},"geometry":{"type":"Point","coordinates":[-1.762247,53.704227]}},{"type":"Feature","properties":{"Organisation":"Community Hub4Hope (Focus4Hope)","Address":"12 Huddersfield Road, Brighouse, HD6 1JZ","Ward":"Brighouse","Postcode":"HD6 1JZ","Longitude":"-1.779441","Latitude":"53.701141"},"geometry":{"type":"Point","coordinates":[-1.779441,53.701141]}},{"type":"Feature","properties":{"Organisation":"Cozy Cafe","Address":"Hebden Bridge Methodist Church, Market Street Hebden Bridge, HX7 6AA","Ward":"Hebden Bridge","Postcode":"HX7 6AA","Longitude":"-2.016915","Latitude":"53.741411"},"geometry":{"type":"Point","coordinates":[-2.016915,53.741411]}},{"type":"Feature","properties":{"Organisation":"Cragg Vale Community Hubbub","Address":"St Johns Church, Church Bank, Cragg Vale, HX7 5TF","Ward":"Cragg Vale","Postcode":"HX7 5TF","Longitude":"-1.999918","Latitude":"53.705307"},"geometry":{"type":"Point","coordinates":[-1.999918,53.705307]}},{"type":"Feature","properties":{"Organisation":"Disability Support Calderdale","Address":"Suite 38, Windsor Works, Victoria Road, Hebden Bridge, HX7 8LN","Ward":"Hebden Bridge","Postcode":"HX7 8LN","Longitude":"-2.013869","Latitude":"53.74604"},"geometry":{"type":"Point","coordinates":[-2.013869,53.74604]}},{"type":"Feature","properties":{"Organisation":"Dodnaze Community Association","Address":"54 Hirst Grove, Hebden Bridge, HX7 8DN","Ward":"Hebden Bridge","Postcode":"HX7 8DN","Longitude":"-2.004316","Latitude":"53.742158"},"geometry":{"type":"Point","coordinates":[-2.004316,53.742158]}},{"type":"Feature","properties":{"Organisation":"EdShift","Address":"7 Harrison Road, Halifax, HX1 2AG","Ward":"Halifax","Postcode":"HX1 2AG","Longitude":"-1.862683","Latitude":"53.721281"},"geometry":{"type":"Point","coordinates":[-1.862683,53.721281]}},{"type":"Feature","properties":{"Organisation":"Elland Christian Centre","Address":"Newcombe Street, Elland, HX5 0EG","Ward":"Elland","Postcode":"HX5 0EG","Longitude":"-1.832579","Latitude":"53.681084"},"geometry":{"type":"Point","coordinates":[-1.832579,53.681084]}},{"type":"Feature","properties":{"Organisation":"Elland Library","Address":"Coronation Street, Elland, HX5 0DF","Ward":"Elland","Postcode":"HX5 0DF","Longitude":"-1.838106","Latitude":"53.684876"},"geometry":{"type":"Point","coordinates":[-1.838106,53.684876]}},{"type":"Feature","properties":{"Organisation":"Everybody Arts ","Address":"Shaw Lodge Mills, Shaw Lane, Halifax, HX3 9ET","Ward":"Halifax","Postcode":"HX3 9ET","Longitude":"-1.854481","Latitude":"53.71365"},"geometry":{"type":"Point","coordinates":[-1.854481,53.71365]}},{"type":"Feature","properties":{"Organisation":"Grass Roots Family CIC","Address":"St Peter's Community Centre, St Peter's Avenue, Sowerby, HX6 1HB","Ward":"Sowerby   ","Postcode":"HX6 1HB","Longitude":"-1.93607","Latitude":"53.704005"},"geometry":{"type":"Point","coordinates":[-1.93607,53.704005]}},{"type":"Feature","properties":{"Organisation":"Halifax Community Fridge","Address":"The Jilani Kitchen, Madni Mosque, 131 Gibbet Street","Ward":"HALIFAX","Postcode":"HX1 5LE","Longitude":"-1.872117","Latitude":"53.723611"},"geometry":{"type":"Point","coordinates":[-1.872117,53.723611]}},{"type":"Feature","properties":{"Organisation":"Halifax Elim Church","Address":"Hall Street, Halifax, HX1 5AY","Ward":"Halifax","Postcode":"HX1 5AY","Longitude":"-1.866163","Latitude":"53.723047"},"geometry":{"type":"Point","coordinates":[-1.866163,53.723047]}},{"type":"Feature","properties":{"Organisation":"Hebden Bridge Community Association","Address":"The Town Hall, St George's Street, Hebden Bridge, HX7 7BY","Ward":"Hebden Bridge","Postcode":"HX7 7BY","Longitude":"-2.013185","Latitude":"53.742445"},"geometry":{"type":"Point","coordinates":[-2.013185,53.742445]}},{"type":"Feature","properties":{"Organisation":"Hebden Bridge Library","Address":"Cheetham Street, Hebden Bridge, HX7 8EP","Ward":"Hebden Bridge","Postcode":"HX7 8EP","Longitude":"-2.012063","Latitude":"53.74125"},"geometry":{"type":"Point","coordinates":[-2.012063,53.74125]}},{"type":"Feature","properties":{"Organisation":"Hebden Brige Picture House","Address":"New Road","Ward":"Hebden Bridge","Postcode":"HX7 8AD","Longitude":"-2.010183","Latitude":"53.740126"},"geometry":{"type":"Point","coordinates":[-2.010183,53.740126]}},{"type":"Feature","properties":{"Organisation":"Himmat Limited","Address":"Raven Street Centre  - Lower Floor, Raven Street, Halifax, HX1 4NB","Ward":"Park","Postcode":"HX1 4NB","Longitude":"-1.880891","Latitude":"53.724024"},"geometry":{"type":"Point","coordinates":[-1.880891,53.724024]}},{"type":"Feature","properties":{"Organisation":"Holy Nativity Mixenden (Mixenden and Illingworth PCC)","Address":"Sunny Bank Road, Mixenden, Halifax, HX2 8RX","Ward":"Mixenden","Postcode":"HX2 8RX","Longitude":"-1.90895","Latitude":"53.748793"},"geometry":{"type":"Point","coordinates":[-1.90895,53.748793]}},{"type":"Feature","properties":{"Organisation":"Holy Trinity & St Jude's Church","Address":"Free School Lane, Savile Park, Halifax, HX1 2XE","Ward":"Savile Park","Postcode":"HX1 2XE","Longitude":"-1.868696","Latitude":"53.712731"},"geometry":{"type":"Point","coordinates":[-1.868696,53.712731]}},{"type":"Feature","properties":{"Organisation":"Hope Baptist Church","Address":"Hope Street, Hebden Bridge, HX7 8AD","Ward":"Hebden Bridge","Postcode":"HX7 8AD","Longitude":"-2.010183","Latitude":"53.740126"},"geometry":{"type":"Point","coordinates":[-2.010183,53.740126]}},{"type":"Feature","properties":{"Organisation":"King Cross Library","Address":"151 Haugh Shaw Road, Halifax, HX1 3BG","Ward":"King Cross","Postcode":"HX1 3BG","Longitude":"-1.882281","Latitude":"53.714552"},"geometry":{"type":"Point","coordinates":[-1.882281,53.714552]}},{"type":"Feature","properties":{"Organisation":"Mixenden Library","Address":"Mixenden Activity Centre, Clough Lane, Mixenden HX2 8SH","Ward":"Mixenden","Postcode":"HX2 8SH","Longitude":"-1.909061","Latitude":"53.753664"},"geometry":{"type":"Point","coordinates":[-1.909061,53.753664]}},{"type":"Feature","properties":{"Organisation":"Northowram Library","Address":"Lydgate Northowram Halifax, HX3 7EJ","Ward":"Northowram","Postcode":"HX3 7EJ","Longitude":"-1.829982","Latitude":"53.739917"},"geometry":{"type":"Point","coordinates":[-1.829982,53.739917]}},{"type":"Feature","properties":{"Organisation":"Pellon Baptist Church","Address":"Springhall Lane, Long Lover Lane, Halifax, HX1 4UA","Ward":"Pellon","Postcode":"HX1 4UA","Longitude":"-1.887987","Latitude":"53.728399"},"geometry":{"type":"Point","coordinates":[-1.887987,53.728399]}},{"type":"Feature","properties":{"Organisation":"Rastrick Library","Address":"Crowtrees Lane, Rastrick, Brighouse, HD6 3NE","Ward":"Rastrick","Postcode":"HD6 3NE","Longitude":"-1.793584","Latitude":"53.689625"},"geometry":{"type":"Point","coordinates":[-1.793584,53.689625]}},{"type":"Feature","properties":{"Organisation":"Roomfield Baptist Church","Address":"Halifax Road, Todmorden, OL14 5BE","Ward":"Todmorden","Postcode":"OL14 5BE","Longitude":"-2.089874","Latitude":"53.714531"},"geometry":{"type":"Point","coordinates":[-2.089874,53.714531]}},{"type":"Feature","properties":{"Organisation":"Salvation Army Brighouse","Address":"33 King Street, Brighouse, HD6 1NX","Ward":"Brighouse","Postcode":"HD6 1NX","Longitude":"-1.778402","Latitude":"53.702793"},"geometry":{"type":"Point","coordinates":[-1.778402,53.702793]}},{"type":"Feature","properties":{"Organisation":"Sowerby Bridge Library","Address":"Hollins Mill Lane, Sowerby Bridge, HX6 2QG","Ward":"Sowerby Bridge","Postcode":"HX6 2QG","Longitude":"-1.91293","Latitude":"53.708628"},"geometry":{"type":"Point","coordinates":[-1.91293,53.708628]}},{"type":"Feature","properties":{"Organisation":"Sowerby Bridge Pool and Fitness Centre","Address":"Station Road","Ward":"Sowerby Bridge","Postcode":"HX6 3AB","Longitude":"-1.910782","Latitude":"53.707126"},"geometry":{"type":"Point","coordinates":[-1.910782,53.707126]}},{"type":"Feature","properties":{"Organisation":"St Andrews Methodist Church","Address":"Huddersfield Road, Halifax, HX3 0AT","Ward":"Skircoat Green","Postcode":"HX2 0AT","Longitude":"-1.895592","Latitude":"53.723633"},"geometry":{"type":"Point","coordinates":[-1.895592,53.723633]}},{"type":"Feature","properties":{"Organisation":"St Augustines Centre","Address":"Hanson Lane, Halifax, HX1 5PG","Ward":"Park ","Postcode":"HX1 5PG","Longitude":"-1.878099","Latitude":"53.725163"},"geometry":{"type":"Point","coordinates":[-1.878099,53.725163]}},{"type":"Feature","properties":{"Organisation":"St George's Community Trust","Address":"Lilac Street, Lee Mount, Halifax, HX3 5BT","Ward":"Lee Mount","Postcode":"HX3 5BT","Longitude":"-1.872426","Latitude":"53.73197"},"geometry":{"type":"Point","coordinates":[-1.872426,53.73197]}},{"type":"Feature","properties":{"Organisation":"St Marys Church (Over 60s Soup and Social)","Address":"Burnley Road, Todmorden, OL14 7BD","Ward":"Todmorden","Postcode":"OL14 7BD","Longitude":"-2.097843","Latitude":"53.714102"},"geometry":{"type":"Point","coordinates":[-2.097843,53.714102]}},{"type":"Feature","properties":{"Organisation":"St Michaels All Angels Church","Address":"Carr House Road, ","Ward":"Shelf","Postcode":"HX3 7QE","Longitude":"-1.803728","Latitude":"53.758545"},"geometry":{"type":"Point","coordinates":[-1.803728,53.758545]}},{"type":"Feature","properties":{"Organisation":"St Paul's Methodist Church Sowerby Bridge","Address":"Tower Hill, Sowerby Bridge, HX6 2EQ","Ward":"Sowerby Bridge","Postcode":"HX6 2EQ","Longitude":"-1.910899","Latitude":"53.70904"},"geometry":{"type":"Point","coordinates":[-1.910899,53.70904]}},{"type":"Feature","properties":{"Organisation":"The Kings Church (Kings Centre - Park Road)","Address":"Park Lane, Halifax, HX1 2TS","Ward":"Park","Postcode":"HX1 2TS","Longitude":"-1.870431","Latitude":"53.719825"},"geometry":{"type":"Point","coordinates":[-1.870431,53.719825]}},{"type":"Feature","properties":{"Organisation":"The Space @ Field Lane","Address":"The Space at Field Lane, Burnsall Road, Rastrick, HD6 3JT","Ward":"Rastrick","Postcode":"HD6 3JT","Longitude":"-1.803","Latitude":"53.690108"},"geometry":{"type":"Point","coordinates":[-1.803,53.690108]}},{"type":"Feature","properties":{"Organisation":"Todmorden Health Centre","Address":"Lower George Street, Todmorden, OL14 5QG","Ward":"Todmorden","Postcode":"OL14 5QG","Longitude":"-2.095539","Latitude":"53.713699"},"geometry":{"type":"Point","coordinates":[-2.095539,53.713699]}},{"type":"Feature","properties":{"Organisation":"Todmorden Library","Address":"The Strand, Rochdale Road, Todmorden, OL14 7LB","Ward":"Todmorden","Postcode":"OL14 7LB","Longitude":"-2.09884","Latitude":"53.712699"},"geometry":{"type":"Point","coordinates":[-2.09884,53.712699]}},{"type":"Feature","properties":{"Organisation":"Todmorden Sports Centre","Address":"Ewood Lane","Ward":"Todmorden","Postcode":"OL14 7DF","Longitude":"-2.109752","Latitude":"53.71997"},"geometry":{"type":"Point","coordinates":[-2.109752,53.71997]}},{"type":"Feature","properties":{"Organisation":"Unique Ways","Address":"Hanson Lane, Halifax, HX1 5PG","Ward":"Park","Postcode":"HX1 5PG","Longitude":"-1.878099","Latitude":"53.725163"},"geometry":{"type":"Point","coordinates":[-1.878099,53.725163]}},{"type":"Feature","properties":{"Organisation":"Vale Baptist Church","Address":"Burnley Road, Todmorden, OL14 7BD","Ward":"Todmorden","Postcode":"OL14 8JY","Longitude":"-2.135856","Latitude":"53.732238"},"geometry":{"type":"Point","coordinates":[-2.135856,53.732238]}}]}